LEMUR-2-LEIA-PHILIP     
1 63246U 25052AN  26188.51864188  .00001930  00000+0  17109-3 0  9994
2 63246  97.6815  80.1253 0004889 138.7865 221.3727 14.97376769 71714
LEMUR-2-LIA-MARTIN      
1 63248U 25052AQ  26189.51834833  .00003776  00000+0  32470-3 0  9999
2 63248  97.6868  81.6147 0005348 106.5482 253.6328 14.97990233 71871
LEMUR-2-DELOITTE-1      
1 63259U 25052BB  26188.69600532  .00002391  00000+0  20879-3 0  9998
2 63259  97.6883  81.1366 0002285  66.1516 293.9945 14.97747072 71765
LEMUR-2-EMERSONROSE     
1 63261U 25052BD  26189.45186528  .00003072  00000+0  25672-3 0  9993
2 63261  97.6875  82.4785 0002788  71.9134 288.2393 14.99248834 71922
LEMUR-2-MARACHE-FRAN    
1 63262U 25052BE  26189.14572795  .00002088  00000+0  17143-3 0  9995
2 63262  97.6862  82.5352 0004530 284.8117  75.2604 15.00285042 71905
LEMUR-2-THEFALCONER     
1 63264U 25052BG  26189.52721721  .00002615  00000+0  22911-3 0  9999
2 63264  97.6848  81.5519 0000822  25.1505 334.9757 14.97541481 71880
LEMUR-2-UNTITLED-SC     
1 63351U 25061A   26189.37677323  .00001623  00000+0  93739-4 0  9992
2 63351  97.5647 164.5866 0018499 186.2347 173.8657 15.13616918 70797
LEMUR-2-ESPERANZA       
1 63352U 25061B   26189.41869562  .00002982  00000+0  16864-3 0  9998
2 63352  97.5653 164.7266 0018109 185.5129 174.5906 15.13725278 70806
LEMUR-2-KREMPEL-BRO2    
1 63353U 25061C   26189.24131023  .00001798  00000+0  10191-3 0  9995
2 63353  97.5701 165.1108 0019256 178.6796 181.4489 15.14147403 70798
LEMUR-2-THERMORAPTOR    
1 63354U 25061D   26189.35441523  .00002507  00000+0  14033-3 0  9995
2 63354  97.5705 165.3030 0019042 177.2592 182.8747 15.14230709 70818
LEMUR-2-NEUROSPICY      
1 63355U 25061E   26189.39053852  .00002048  00000+0  11505-3 0  9995
2 63355  97.5634 164.9487 0016776 179.7872 180.3370 15.14350648 70821
LEMUR-2-TILLINFINITY    
1 63356U 25061F   26189.35158091  .00002658  00000+0  14571-3 0  9996
2 63356  97.5619 165.2154 0018376 168.7103 191.4545 15.14932926 70847
LEMUR-2-KREMPEL-BRO1    
1 63357U 25061G   26189.39381829  .00002163  00000+0  11984-3 0  9994
2 63357  97.5619 165.1674 0019020 169.7248 190.4377 15.14742004 70840
LEMUR-2-LANGER2SPACE    
1 63358U 25061H   26188.96206074  .00002236  00000+0  12498-3 0  9997
2 63358  97.5622 164.5436 0016637 179.7779 180.3463 15.14431885 70762
LEMUR-2-BALTO           
1 63395U 25052BH  26189.53045674  .00003520  00000+0  28537-3 0  9997
2 63395  97.6931  82.8968 0005529 354.4462   5.6699 15.00323096 71960
LEMUR-2-KRISH           
1 64561U 25135AK  26188.80500465  .00003724  00000+0  33367-3 0  9991
2 64561  97.7759 303.5424 0001746 100.4811 259.6607 14.96405512 57006
